start=new Date('2023-06-23T00:00:00.000Z').valueOf();
sats=[{"RCS_SIZE":"LARGE","BSTAR":"0.00011491000000","INCLINATION":"53.2173","MEAN_ELEMENT_THEORY":"SGP4","ARG_OF_PERICENTER":"68.7641","MEAN_MOTION_DDOT":"0.0000000000000","OBJECT_TYPE":"PAYLOAD","EPHEMERIS_TYPE":"0","MEAN_ANOMALY":"291.3443","EPOCH":"2023-06-22T16:31:03.335520","CENTER_NAME":"EARTH","SITE":"AFETR","MEAN_MOTION":"15.08845712","OBJECT_ID":"2022-053W","TLE_LINE2":"2 52676  53.2173 282.8977 0000866  68.7641 291.3443 15.08845712 61008","ECCENTRICITY":"0.00008660","FILE":"3940048","PERIOD":"95.437","RA_OF_ASC_NODE":"282.8977","TLE_LINE1":"1 52676U 22053W   23173.68823305  .00001542  00000-0  11491-3 0  9990","ELEMENT_SET_NO":"999","DECAY_DATE":null,"REF_FRAME":"TEME","CLASSIFICATION_TYPE":"U","SEMIMAJOR_AXIS":"6917.863","LAUNCH_DATE":"2022-05-18","NORAD_CAT_ID":"52676","OBJECT_NAME":"STARLINK-4006","APOAPSIS":"540.327","MEAN_MOTION_DOT":"0.00001542","TIME_SYSTEM":"UTC","COUNTRY_CODE":"US","PERIAPSIS":"539.129","GP_ID":"234460573","REV_AT_EPOCH":"6100"},{"FILE":"3940048","ECCENTRICITY":"0.00007710","TLE_LINE2":"2 52677  53.2160 273.5567 0000771  79.1356 280.9723 15.08840752 61117","MEAN_MOTION":"15.08840752","OBJECT_ID":"2022-053X","SITE":"AFETR","CENTER_NAME":"EARTH","EPOCH":"2023-06-22T13:00:25.152192","MEAN_ANOMALY":"280.9723","EPHEMERIS_TYPE":"0","OBJECT_TYPE":"PAYLOAD","ARG_OF_PERICENTER":"79.1356","MEAN_MOTION_DDOT":"0.0000000000000","MEAN_ELEMENT_THEORY":"SGP4","INCLINATION":"53.2160","BSTAR":"0.00007957200000","RCS_SIZE":"LARGE","REV_AT_EPOCH":"6111","GP_ID":"234461062","PERIAPSIS":"539.210","COUNTRY_CODE":"US","TIME_SYSTEM":"UTC","MEAN_MOTION_DOT":"0.00000979","APOAPSIS":"540.276","OBJECT_NAME":"STARLINK-4028","NORAD_CAT_ID":"52677","LAUNCH_DATE":"2022-05-18","SEMIMAJOR_AXIS":"6917.878","CLASSIFICATION_TYPE":"U","REF_FRAME":"TEME","TLE_LINE1":"1 52677U 22053X   23173.54195778  .00000979  00000-0  79572-4 0  9990","DECAY_DATE":null,"ELEMENT_SET_NO":"999","RA_OF_ASC_NODE":"273.5567","PERIOD":"95.438"},{"SITE":"AFETR","MEAN_MOTION":"15.08832736","OBJECT_ID":"2022-053Y","TLE_LINE2":"2 52678  53.2158 273.5201 0000985  84.9908 275.1196 15.08832736 61117","FILE":"3940067","ECCENTRICITY":"0.00009850","EPOCH":"2023-06-22T13:12:23.992416","CENTER_NAME":"EARTH","MEAN_ANOMALY":"275.1196","OBJECT_TYPE":"PAYLOAD","EPHEMERIS_TYPE":"0","MEAN_MOTION_DDOT":"0.0000000000000","ARG_OF_PERICENTER":"84.9908","BSTAR":"0.00002678600000","INCLINATION":"53.2158","MEAN_ELEMENT_THEORY":"SGP4","RCS_SIZE":"LARGE","COUNTRY_CODE":"US","TIME_SYSTEM":"UTC","PERIAPSIS":"539.086","GP_ID":"234460576","REV_AT_EPOCH":"6111","APOAPSIS":"540.449","MEAN_MOTION_DOT":"0.00000139","LAUNCH_DATE":"2022-05-18","OBJECT_NAME":"STARLINK-4074","NORAD_CAT_ID":"52678","SEMIMAJOR_AXIS":"6917.903","CLASSIFICATION_TYPE":"U","PERIOD":"95.438","RA_OF_ASC_NODE":"273.5201","ELEMENT_SET_NO":"999","TLE_LINE1":"1 52678U 22053Y   23173.55027769  .00000139  00000-0  26786-4 0  9993","DECAY_DATE":null,"REF_FRAME":"TEME"},{"MEAN_ANOMALY":"247.4906","EPOCH":"2023-06-22T15:55:16.908960","CENTER_NAME":"EARTH","SITE":"AFETR","MEAN_MOTION":"15.08849553","OBJECT_ID":"2022-053Z","TLE_LINE2":"2 52679  53.2155 273.0123 0000564 112.6146 247.4906 15.08849553 61137","FILE":"3940067","ECCENTRICITY":"0.00005640","RCS_SIZE":"LARGE","BSTAR":"0.00022570000000","INCLINATION":"53.2155","MEAN_ELEMENT_THEORY":"SGP4","MEAN_MOTION_DDOT":"0.0000000000000","ARG_OF_PERICENTER":"112.6146","OBJECT_TYPE":"PAYLOAD","EPHEMERIS_TYPE":"0","LAUNCH_DATE":"2022-05-18","NORAD_CAT_ID":"52679","OBJECT_NAME":"STARLINK-4031","APOAPSIS":"540.106","MEAN_MOTION_DOT":"0.00003307","COUNTRY_CODE":"US","TIME_SYSTEM":"UTC","PERIAPSIS":"539.326","GP_ID":"234461076","REV_AT_EPOCH":"6113","PERIOD":"95.437","RA_OF_ASC_NODE":"273.0123","TLE_LINE1":"1 52679U 22053Z   23173.66339015  .00003307  00000-0  22570-3 0  9992","DECAY_DATE":null,"ELEMENT_SET_NO":"999","REF_FRAME":"TEME","CLASSIFICATION_TYPE":"U","SEMIMAJOR_AXIS":"6917.851"},{"SEMIMAJOR_AXIS":"6917.872","CLASSIFICATION_TYPE":"U","REF_FRAME":"TEME","TLE_LINE1":"1 52680U 22053AA  23173.54563481  .00001849  00000-0  13421-3 0  9991","ELEMENT_SET_NO":"999","DECAY_DATE":null,"RA_OF_ASC_NODE":"273.5412","PERIOD":"95.437","REV_AT_EPOCH":"6111","GP_ID":"234461079","PERIAPSIS":"539.175","TIME_SYSTEM":"UTC","COUNTRY_CODE":"US","MEAN_MOTION_DOT":"0.00001849","APOAPSIS":"540.300","OBJECT_NAME":"STARLINK-3774","NORAD_CAT_ID":"52680","LAUNCH_DATE":"2022-05-18","OBJECT_TYPE":"PAYLOAD","EPHEMERIS_TYPE":"0","MEAN_MOTION_DDOT":"0.0000000000000","ARG_OF_PERICENTER":"96.3330","MEAN_ELEMENT_THEORY":"SGP4","INCLINATION":"53.2152","BSTAR":"0.00013421000000","RCS_SIZE":"LARGE","ECCENTRICITY":"0.00008130","FILE":"3940067","TLE_LINE2":"2 52680  53.2152 273.5412 0000813  96.3330 263.7754 15.08842654 61117","MEAN_MOTION":"15.08842654","OBJECT_ID":"2022-053AA","SITE":"AFETR","CENTER_NAME":"EARTH","EPOCH":"2023-06-22T13:05:42.847584","MEAN_ANOMALY":"263.7754"},{"BSTAR":"0.00008345700000","INCLINATION":"53.2153","MEAN_ELEMENT_THEORY":"SGP4","RCS_SIZE":"LARGE","EPHEMERIS_TYPE":"0","OBJECT_TYPE":"PAYLOAD","MEAN_MOTION_DDOT":"0.0000000000000","ARG_OF_PERICENTER":"93.3628","EPOCH":"2023-06-22T06:17:40.695648","CENTER_NAME":"EARTH","MEAN_ANOMALY":"266.7468","SITE":"AFETR","MEAN_MOTION":"15.08836288","OBJECT_ID":"2022-053AB","TLE_LINE2":"2 52681  53.2153 274.8103 0000913  93.3628 266.7468 15.08836288 61074","ECCENTRICITY":"0.00009130","FILE":"3939758","CLASSIFICATION_TYPE":"U","PERIOD":"95.438","RA_OF_ASC_NODE":"274.8103","DECAY_DATE":null,"TLE_LINE1":"1 52681U 22053AB  23173.26227657  .00001041  00000-0  83457-4 0  9994","ELEMENT_SET_NO":"999","REF_FRAME":"TEME","SEMIMAJOR_AXIS":"6917.892","LAUNCH_DATE":"2022-05-18","NORAD_CAT_ID":"52681","OBJECT_NAME":"STARLINK-4068","TIME_SYSTEM":"UTC","COUNTRY_CODE":"US","PERIAPSIS":"539.125","GP_ID":"234453690","REV_AT_EPOCH":"6107","APOAPSIS":"540.388","MEAN_MOTION_DOT":"0.00001041"},{"SEMIMAJOR_AXIS":"6917.895","PERIOD":"95.438","RA_OF_ASC_NODE":"274.7632","TLE_LINE1":"1 52682U 22053AC  23173.27331792  .00000652  00000-0  59039-4 0  9998","ELEMENT_SET_NO":"999","DECAY_DATE":null,"REF_FRAME":"TEME","CLASSIFICATION_TYPE":"U","APOAPSIS":"540.350","MEAN_MOTION_DOT":"0.00000652","TIME_SYSTEM":"UTC","COUNTRY_CODE":"US","PERIAPSIS":"539.170","GP_ID":"234453699","REV_AT_EPOCH":"6107","LAUNCH_DATE":"2022-05-18","NORAD_CAT_ID":"52682","OBJECT_NAME":"STARLINK-4017","ARG_OF_PERICENTER":"105.0652","MEAN_MOTION_DDOT":"0.0000000000000","EPHEMERIS_TYPE":"0","OBJECT_TYPE":"PAYLOAD","RCS_SIZE":"LARGE","BSTAR":"0.00005903900000","INCLINATION":"53.2178","MEAN_ELEMENT_THEORY":"SGP4","SITE":"AFETR","OBJECT_ID":"2022-053AC","MEAN_MOTION":"15.08835232","TLE_LINE2":"2 52682  53.2178 274.7632 0000853 105.0652 255.0435 15.08835232 61072","ECCENTRICITY":"0.00008530","FILE":"3939771","MEAN_ANOMALY":"255.0435","EPOCH":"2023-06-22T06:33:34.668288","CENTER_NAME":"EARTH"},{"RCS_SIZE":"LARGE","MEAN_ELEMENT_THEORY":"SGP4","BSTAR":"0.00034008000000","INCLINATION":"53.2171","ARG_OF_PERICENTER":"96.5070","MEAN_MOTION_DDOT":"0.0000000000000","EPHEMERIS_TYPE":"0","OBJECT_TYPE":"PAYLOAD","MEAN_ANOMALY":"263.6043","EPOCH":"2023-06-21T23:45:32.243328","CENTER_NAME":"EARTH","TLE_LINE2":"2 52683  53.2171 276.0353 0001060  96.5070 263.6043 15.08840622 61035","ECCENTRICITY":"0.00010600","FILE":"3939476","SITE":"AFETR","MEAN_MOTION":"15.08840622","OBJECT_ID":"2022-053AD","TLE_LINE1":"1 52683U 22053AD  23172.98995652  .00005129  00000-0  34008-3 0  9999","DECAY_DATE":null,"ELEMENT_SET_NO":"999","REF_FRAME":"TEME","PERIOD":"95.438","RA_OF_ASC_NODE":"276.0353","CLASSIFICATION_TYPE":"U","SEMIMAJOR_AXIS":"6917.878","LAUNCH_DATE":"2022-05-18","NORAD_CAT_ID":"52683","OBJECT_NAME":"STARLINK-4039","MEAN_MOTION_DOT":"0.00005129","APOAPSIS":"540.477","GP_ID":"234447366","REV_AT_EPOCH":"6103","TIME_SYSTEM":"UTC","COUNTRY_CODE":"US","PERIAPSIS":"539.010"},{"APOAPSIS":"540.190","MEAN_MOTION_DOT":"0.00000882","PERIAPSIS":"539.269","COUNTRY_CODE":"US","TIME_SYSTEM":"UTC","REV_AT_EPOCH":"6114","GP_ID":"234461093","NORAD_CAT_ID":"52684","OBJECT_NAME":"STARLINK-4014","LAUNCH_DATE":"2022-05-18","SEMIMAJOR_AXIS":"6917.864","RA_OF_ASC_NODE":"272.9964","PERIOD":"95.437","REF_FRAME":"TEME","TLE_LINE1":"1 52684U 22053AE  23173.66707326  .00000882  00000-0  73442-4 0  9992","DECAY_DATE":null,"ELEMENT_SET_NO":"999","CLASSIFICATION_TYPE":"U","MEAN_MOTION":"15.08845249","OBJECT_ID":"2022-053AE","SITE":"AFETR","ECCENTRICITY":"0.00006660","FILE":"3940049","TLE_LINE2":"2 52684  53.2165 272.9964 0000666  80.0657 280.0410 15.08845249 61145","MEAN_ANOMALY":"280.0410","CENTER_NAME":"EARTH","EPOCH":"2023-06-22T16:00:35.129664","ARG_OF_PERICENTER":"80.0657","MEAN_MOTION_DDOT":"0.0000000000000","OBJECT_TYPE":"PAYLOAD","EPHEMERIS_TYPE":"0","RCS_SIZE":"LARGE","INCLINATION":"53.2165","BSTAR":"0.00007344200000","MEAN_ELEMENT_THEORY":"SGP4"},{"SITE":"AFETR","OBJECT_ID":"2022-053AF","MEAN_MOTION":"15.08841741","TLE_LINE2":"2 52685  53.2143 274.5791 0000859  83.9191 276.1899 15.08841741 61080","ECCENTRICITY":"0.00008590","FILE":"3939888","EPOCH":"2023-06-22T07:31:51.856032","CENTER_NAME":"EARTH","MEAN_ANOMALY":"276.1899","EPHEMERIS_TYPE":"0","OBJECT_TYPE":"PAYLOAD","ARG_OF_PERICENTER":"83.9191","MEAN_MOTION_DDOT":"0.0000000000000","BSTAR":"0.00015802000000","INCLINATION":"53.2143","MEAN_ELEMENT_THEORY":"SGP4","RCS_SIZE":"LARGE","COUNTRY_CODE":"US","TIME_SYSTEM":"UTC","PERIAPSIS":"539.146","GP_ID":"234457416","REV_AT_EPOCH":"6108","APOAPSIS":"540.334","MEAN_MOTION_DOT":"0.00002228","LAUNCH_DATE":"2022-05-18","NORAD_CAT_ID":"52685","OBJECT_NAME":"STARLINK-4029","SEMIMAJOR_AXIS":"6917.875","CLASSIFICATION_TYPE":"U","PERIOD":"95.437","RA_OF_ASC_NODE":"274.5791","ELEMENT_SET_NO":"999","TLE_LINE1":"1 52685U 22053AF  23173.31379463  .00002228  00000-0  15802-3 0  9993","DECAY_DATE":null,"REF_FRAME":"TEME"}];
